<?xml version="1.0" encoding="UTF-8"?>
<ndm xmlns:xsi="http://www.w3.org/2001/XMLSchema-instance" xsi:noNamespaceSchemaLocation="https://sanaregistry.org/r/ndmxml_unqualified/ndmxml-2.0.0-master-2.0.xsd">
<omm id="CCSDS_OMM_VERS" version="2.0">
<header><CREATION_DATE/><ORIGINATOR/></header><body><segment><metadata><OBJECT_NAME>ORBCOMM FM20 [+]</OBJECT_NAME><OBJECT_ID>1998-046D</OBJECT_ID><CENTER_NAME>EARTH</CENTER_NAME><REF_FRAME>TEME</REF_FRAME><TIME_SYSTEM>UTC</TIME_SYSTEM><MEAN_ELEMENT_THEORY>SGP4</MEAN_ELEMENT_THEORY></metadata><data><meanElements><EPOCH>2024-01-22T23:37:02.180064</EPOCH><MEAN_MOTION>14.34807173</MEAN_MOTION><ECCENTRICITY>.0002177</ECCENTRICITY><INCLINATION>44.9954</INCLINATION><RA_OF_ASC_NODE>77.4283</RA_OF_ASC_NODE><ARG_OF_PERICENTER>243.9630</ARG_OF_PERICENTER><MEAN_ANOMALY>116.0993</MEAN_ANOMALY></meanElements><tleParameters><EPHEMERIS_TYPE>0</EPHEMERIS_TYPE><CLASSIFICATION_TYPE>U</CLASSIFICATION_TYPE><NORAD_CAT_ID>25416</NORAD_CAT_ID><ELEMENT_SET_NO>999</ELEMENT_SET_NO><REV_AT_EPOCH>33078</REV_AT_EPOCH><BSTAR>.58049E-3</BSTAR><MEAN_MOTION_DOT>.1521E-4</MEAN_MOTION_DOT><MEAN_MOTION_DDOT>0</MEAN_MOTION_DDOT></tleParameters></data></segment></body></omm>
<omm id="CCSDS_OMM_VERS" version="2.0">
<header><CREATION_DATE/><ORIGINATOR/></header><body><segment><metadata><OBJECT_NAME>ORBCOMM FM16 [-]</OBJECT_NAME><OBJECT_ID>1998-046E</OBJECT_ID><CENTER_NAME>EARTH</CENTER_NAME><REF_FRAME>TEME</REF_FRAME><TIME_SYSTEM>UTC</TIME_SYSTEM><MEAN_ELEMENT_THEORY>SGP4</MEAN_ELEMENT_THEORY></metadata><data><meanElements><EPOCH>2024-01-23T10:16:43.473216</EPOCH><MEAN_MOTION>14.35639831</MEAN_MOTION><ECCENTRICITY>.0005991</ECCENTRICITY><INCLINATION>44.9949</INCLINATION><RA_OF_ASC_NODE>71.8493</RA_OF_ASC_NODE><ARG_OF_PERICENTER>252.5599</ARG_OF_PERICENTER><MEAN_ANOMALY>107.4594</MEAN_ANOMALY></meanElements><tleParameters><EPHEMERIS_TYPE>0</EPHEMERIS_TYPE><CLASSIFICATION_TYPE>U</CLASSIFICATION_TYPE><NORAD_CAT_ID>25417</NORAD_CAT_ID><ELEMENT_SET_NO>999</ELEMENT_SET_NO><REV_AT_EPOCH>33099</REV_AT_EPOCH><BSTAR>.87289E-3</BSTAR><MEAN_MOTION_DOT>.2401E-4</MEAN_MOTION_DOT><MEAN_MOTION_DDOT>0</MEAN_MOTION_DDOT></tleParameters></data></segment></body></omm>
<omm id="CCSDS_OMM_VERS" version="2.0">
<header><CREATION_DATE/><ORIGINATOR/></header><body><segment><metadata><OBJECT_NAME>ORBCOMM FM15 [-]</OBJECT_NAME><OBJECT_ID>1998-046F</OBJECT_ID><CENTER_NAME>EARTH</CENTER_NAME><REF_FRAME>TEME</REF_FRAME><TIME_SYSTEM>UTC</TIME_SYSTEM><MEAN_ELEMENT_THEORY>SGP4</MEAN_ELEMENT_THEORY></metadata><data><meanElements><EPOCH>2024-01-22T22:44:17.710944</EPOCH><MEAN_MOTION>14.35383036</MEAN_MOTION><ECCENTRICITY>.0005513</ECCENTRICITY><INCLINATION>44.9980</INCLINATION><RA_OF_ASC_NODE>77.9334</RA_OF_ASC_NODE><ARG_OF_PERICENTER>251.8706</ARG_OF_PERICENTER><MEAN_ANOMALY>108.1541</MEAN_ANOMALY></meanElements><tleParameters><EPHEMERIS_TYPE>0</EPHEMERIS_TYPE><CLASSIFICATION_TYPE>U</CLASSIFICATION_TYPE><NORAD_CAT_ID>25418</NORAD_CAT_ID><ELEMENT_SET_NO>999</ELEMENT_SET_NO><REV_AT_EPOCH>33071</REV_AT_EPOCH><BSTAR>.71803E-3</BSTAR><MEAN_MOTION_DOT>.1939E-4</MEAN_MOTION_DOT><MEAN_MOTION_DDOT>0</MEAN_MOTION_DDOT></tleParameters></data></segment></body></omm>
<omm id="CCSDS_OMM_VERS" version="2.0">
<header><CREATION_DATE/><ORIGINATOR/></header><body><segment><metadata><OBJECT_NAME>ORBCOMM FM14 [-]</OBJECT_NAME><OBJECT_ID>1998-046G</OBJECT_ID><CENTER_NAME>EARTH</CENTER_NAME><REF_FRAME>TEME</REF_FRAME><TIME_SYSTEM>UTC</TIME_SYSTEM><MEAN_ELEMENT_THEORY>SGP4</MEAN_ELEMENT_THEORY></metadata><data><meanElements><EPOCH>2024-01-22T23:54:20.517120</EPOCH><MEAN_MOTION>14.35513693</MEAN_MOTION><ECCENTRICITY>.0004277</ECCENTRICITY><INCLINATION>44.9969</INCLINATION><RA_OF_ASC_NODE>76.9498</RA_OF_ASC_NODE><ARG_OF_PERICENTER>245.3655</ARG_OF_PERICENTER><MEAN_ANOMALY>180.5825</MEAN_ANOMALY></meanElements><tleParameters><EPHEMERIS_TYPE>0</EPHEMERIS_TYPE><CLASSIFICATION_TYPE>U</CLASSIFICATION_TYPE><NORAD_CAT_ID>25419</NORAD_CAT_ID><ELEMENT_SET_NO>999</ELEMENT_SET_NO><REV_AT_EPOCH>33067</REV_AT_EPOCH><BSTAR>.85685E-3</BSTAR><MEAN_MOTION_DOT>.2347E-4</MEAN_MOTION_DOT><MEAN_MOTION_DDOT>0</MEAN_MOTION_DDOT></tleParameters></data></segment></body></omm>
<omm id="CCSDS_OMM_VERS" version="2.0">
<header><CREATION_DATE/><ORIGINATOR/></header><body><segment><metadata><OBJECT_NAME>ORBCOMM FM13 [+]</OBJECT_NAME><OBJECT_ID>1998-046H</OBJECT_ID><CENTER_NAME>EARTH</CENTER_NAME><REF_FRAME>TEME</REF_FRAME><TIME_SYSTEM>UTC</TIME_SYSTEM><MEAN_ELEMENT_THEORY>SGP4</MEAN_ELEMENT_THEORY></metadata><data><meanElements><EPOCH>2024-01-22T23:28:52.465728</EPOCH><MEAN_MOTION>14.34890645</MEAN_MOTION><ECCENTRICITY>.0006467</ECCENTRICITY><INCLINATION>44.9981</INCLINATION><RA_OF_ASC_NODE>81.3368</RA_OF_ASC_NODE><ARG_OF_PERICENTER>236.9297</ARG_OF_PERICENTER><MEAN_ANOMALY>123.0930</MEAN_ANOMALY></meanElements><tleParameters><EPHEMERIS_TYPE>0</EPHEMERIS_TYPE><CLASSIFICATION_TYPE>U</CLASSIFICATION_TYPE><NORAD_CAT_ID>25420</NORAD_CAT_ID><ELEMENT_SET_NO>999</ELEMENT_SET_NO><REV_AT_EPOCH>32974</REV_AT_EPOCH><BSTAR>.71131E-3</BSTAR><MEAN_MOTION_DOT>.1899E-4</MEAN_MOTION_DOT><MEAN_MOTION_DDOT>0</MEAN_MOTION_DDOT></tleParameters></data></segment></body></omm>
<omm id="CCSDS_OMM_VERS" version="2.0">
<header><CREATION_DATE/><ORIGINATOR/></header><body><segment><metadata><OBJECT_NAME>ORBCOMM FM21 [-]</OBJECT_NAME><OBJECT_ID>1998-053A</OBJECT_ID><CENTER_NAME>EARTH</CENTER_NAME><REF_FRAME>TEME</REF_FRAME><TIME_SYSTEM>UTC</TIME_SYSTEM><MEAN_ELEMENT_THEORY>SGP4</MEAN_ELEMENT_THEORY></metadata><data><meanElements><EPOCH>2024-01-22T12:12:06.395904</EPOCH><MEAN_MOTION>14.34873994</MEAN_MOTION><ECCENTRICITY>.0001695</ECCENTRICITY><INCLINATION>45.0078</INCLINATION><RA_OF_ASC_NODE>167.7435</RA_OF_ASC_NODE><ARG_OF_PERICENTER>194.1485</ARG_OF_PERICENTER><MEAN_ANOMALY>165.9315</MEAN_ANOMALY></meanElements><tleParameters><EPHEMERIS_TYPE>0</EPHEMERIS_TYPE><CLASSIFICATION_TYPE>U</CLASSIFICATION_TYPE><NORAD_CAT_ID>25475</NORAD_CAT_ID><ELEMENT_SET_NO>999</ELEMENT_SET_NO><REV_AT_EPOCH>32369</REV_AT_EPOCH><BSTAR>.72598E-3</BSTAR><MEAN_MOTION_DOT>.194E-4</MEAN_MOTION_DOT><MEAN_MOTION_DDOT>0</MEAN_MOTION_DDOT></tleParameters></data></segment></body></omm>
<omm id="CCSDS_OMM_VERS" version="2.0">
<header><CREATION_DATE/><ORIGINATOR/></header><body><segment><metadata><OBJECT_NAME>ORBCOMM FM22 [-]</OBJECT_NAME><OBJECT_ID>1998-053B</OBJECT_ID><CENTER_NAME>EARTH</CENTER_NAME><REF_FRAME>TEME</REF_FRAME><TIME_SYSTEM>UTC</TIME_SYSTEM><MEAN_ELEMENT_THEORY>SGP4</MEAN_ELEMENT_THEORY></metadata><data><meanElements><EPOCH>2024-01-22T12:32:23.071200</EPOCH><MEAN_MOTION>14.35306191</MEAN_MOTION><ECCENTRICITY>.0003487</ECCENTRICITY><INCLINATION>45.0062</INCLINATION><RA_OF_ASC_NODE>165.3680</RA_OF_ASC_NODE><ARG_OF_PERICENTER>183.7601</ARG_OF_PERICENTER><MEAN_ANOMALY>176.3220</MEAN_ANOMALY></meanElements><tleParameters><EPHEMERIS_TYPE>0</EPHEMERIS_TYPE><CLASSIFICATION_TYPE>U</CLASSIFICATION_TYPE><NORAD_CAT_ID>25476</NORAD_CAT_ID><ELEMENT_SET_NO>999</ELEMENT_SET_NO><REV_AT_EPOCH>32368</REV_AT_EPOCH><BSTAR>.82285E-3</BSTAR><MEAN_MOTION_DOT>.2239E-4</MEAN_MOTION_DOT><MEAN_MOTION_DDOT>0</MEAN_MOTION_DDOT></tleParameters></data></segment></body></omm>
<omm id="CCSDS_OMM_VERS" version="2.0">
<header><CREATION_DATE/><ORIGINATOR/></header><body><segment><metadata><OBJECT_NAME>ORBCOMM FM23 [-]</OBJECT_NAME><OBJECT_ID>1998-053C</OBJECT_ID><CENTER_NAME>EARTH</CENTER_NAME><REF_FRAME>TEME</REF_FRAME><TIME_SYSTEM>UTC</TIME_SYSTEM><MEAN_ELEMENT_THEORY>SGP4</MEAN_ELEMENT_THEORY></metadata><data><meanElements><EPOCH>2024-01-22T12:55:52.618080</EPOCH><MEAN_MOTION>14.34882650</MEAN_MOTION><ECCENTRICITY>.000267</ECCENTRICITY><INCLINATION>45.0066</INCLINATION><RA_OF_ASC_NODE>170.0500</RA_OF_ASC_NODE><ARG_OF_PERICENTER>182.9170</ARG_OF_PERICENTER><MEAN_ANOMALY>177.1661</MEAN_ANOMALY></meanElements><tleParameters><EPHEMERIS_TYPE>0</EPHEMERIS_TYPE><CLASSIFICATION_TYPE>U</CLASSIFICATION_TYPE><NORAD_CAT_ID>25477</NORAD_CAT_ID><ELEMENT_SET_NO>999</ELEMENT_SET_NO><REV_AT_EPOCH>32384</REV_AT_EPOCH><BSTAR>.83383E-3</BSTAR><MEAN_MOTION_DOT>.225E-4</MEAN_MOTION_DOT><MEAN_MOTION_DDOT>0</MEAN_MOTION_DDOT></tleParameters></data></segment></body></omm>

</ndm>
