ORBCOMM FM20 [+]        
1 25416U 98046D   24022.98405301  .00001521  00000+0  58049-3 0  9992
2 25416  44.9954  77.4283 0002177 243.9630 116.0993 14.34807173330788
ORBCOMM FM16 [-]        
1 25417U 98046E   24023.42828094  .00002401  00000+0  87289-3 0  9997
2 25417  44.9949  71.8493 0005991 252.5599 107.4594 14.35639831330990
ORBCOMM FM15 [-]        
1 25418U 98046F   24022.94742721  .00001939  00000+0  71803-3 0  9996
2 25418  44.9980  77.9334 0005513 251.8706 108.1541 14.35383036330712
ORBCOMM FM14 [-]        
1 25419U 98046G   24022.99607080  .00002347  00000+0  85685-3 0  9997
2 25419  44.9969  76.9498 0004277 245.3655 180.5825 14.35513693330675
ORBCOMM FM13 [+]        
1 25420U 98046H   24022.97838502  .00001899  00000+0  71131-3 0  9994
2 25420  44.9981  81.3368 0006467 236.9297 123.0930 14.34890645329747
ORBCOMM FM21 [-]        
1 25475U 98053A   24022.50840736  .00001940  00000+0  72598-3 0  9998
2 25475  45.0078 167.7435 0001695 194.1485 165.9315 14.34873994323690
ORBCOMM FM22 [-]        
1 25476U 98053B   24022.52248925  .00002239  00000+0  82285-3 0  9999
2 25476  45.0062 165.3680 0003487 183.7601 176.3220 14.35306191323686
ORBCOMM FM23 [-]        
1 25477U 98053C   24022.53880345  .00002250  00000+0  83383-3 0  9992
2 25477  45.0066 170.0500 0002670 182.9170 177.1661 14.34882650323844
